ATLAS CENTAUR R/B       
1 06155U 72065B   26016.93469493  .00000848  00000+0  11912-3 0  9995
2 06155  35.0007 249.0198 0034552 294.3019  65.4075 14.77512541833608
SL-8 R/B                
1 08459U 75112B   26016.95910298  .00000208  00000+0  77215-4 0  9995
2 08459  74.0613 114.0776 0016348 221.7994 138.1913 14.38171119624432
SL-3 R/B                
1 10114U 77057B   26016.96053003  .00010592  00000+0  23498-3 0  9999
2 10114  97.5698 186.6897 0008566 107.4100 252.8085 15.43888860660346
SEASAT 1                
1 10967U 78064A   26016.89281010  .00000252  00000+0  10901-3 0  9994
2 10967 108.0158  16.7949 0001179 278.9359  81.1653 14.46104738499021
SL-14 R/B               
1 11267U 79011B   26016.80116707  .00000512  00000+0  48149-4 0  9997
2 11267  82.5259 145.7927 0014969 227.2652 132.7308 14.91824254521046
SL-8 R/B                
1 11574U 79089B   26016.93344224  .00000353  00000+0  11464-3 0  9996
2 11574  74.0675 186.8409 0015570   8.1661 351.9746 14.42309191428648
SL-14 R/B               
1 11672U 80005B   26016.98149635  .00000601  00000+0  58376-4 0  9999
2 11672  82.5150 356.2707 0015219 341.9870  18.0807 14.90843176468780
SL-8 R/B                
1 12139U 81003B   26016.91193545  .00026415  00000+0  69961-3 0  9991
2 12139  82.9388 337.8268 0271108 359.4929   0.5981 15.08571055306866
SL-3 R/B                
1 12465U 81046B   26016.97568651  .00010116  00000+0  24755-3 0  9993
2 12465  81.2327 351.7551 0018777 193.7777 166.2955 15.40449408430461
SL-3 R/B                
1 12904U 81103B   26016.93406538  .00004393  00000+0  19829-3 0  9992
2 12904  81.1593 274.1253 0014451  97.5911 262.6963 15.20690512965360
SL-3 R/B                
1 13068U 82013B   26016.96489775  .00003665  00000+0  16108-3 0  9990
2 13068  81.1723 221.3673 0022779 356.6278   3.4796 15.21416782396486
SL-3 R/B                
1 13154U 82039B   26016.96730046  .00001966  00000+0  11912-3 0  9994
2 13154  81.1672 275.5586 0029912 133.7616 226.6092 15.09755287373839
