CCSDS_OMM_VERS = 2.0
CREATION_DATE  = 
ORIGINATOR     = 

OBJECT_NAME    = ATLAS CENTAUR R/B
OBJECT_ID      = 1972-065B
CENTER_NAME    = EARTH
REF_FRAME      = TEME
TIME_SYSTEM    = UTC
MEAN_ELEMENT_THEORY = SGP/SGP4

EPOCH          = 2026-01-16T22:25:57.641952
MEAN_MOTION    = 14.77512541
ECCENTRICITY   = .00345521
INCLINATION    = 35.0007
RA_OF_ASC_NODE = 249.0198
ARG_OF_PERICENTER = 294.3019
MEAN_ANOMALY   = 65.4075

EPHEMERIS_TYPE = 0
CLASSIFICATION_TYPE = U
NORAD_CAT_ID   = 6155
ELEMENT_SET_NO = 999
REV_AT_EPOCH   = 83360
BSTAR          = .11912019E-3
MEAN_MOTION_DOT = .848E-5
MEAN_MOTION_DDOT = 0

CCSDS_OMM_VERS = 2.0
CREATION_DATE  = 
ORIGINATOR     = 

OBJECT_NAME    = SL-8 R/B
OBJECT_ID      = 1975-112B
CENTER_NAME    = EARTH
REF_FRAME      = TEME
TIME_SYSTEM    = UTC
MEAN_ELEMENT_THEORY = SGP/SGP4

EPOCH          = 2026-01-16T23:01:06.497472
MEAN_MOTION    = 14.38171119
ECCENTRICITY   = .00163487
INCLINATION    = 74.0613
RA_OF_ASC_NODE = 114.0776
ARG_OF_PERICENTER = 221.7994
MEAN_ANOMALY   = 138.1913

EPHEMERIS_TYPE = 0
CLASSIFICATION_TYPE = U
NORAD_CAT_ID   = 8459
ELEMENT_SET_NO = 999
REV_AT_EPOCH   = 62443
BSTAR          = .77215337E-4
MEAN_MOTION_DOT = .208E-5
MEAN_MOTION_DDOT = 0

CCSDS_OMM_VERS = 2.0
CREATION_DATE  = 
ORIGINATOR     = 

OBJECT_NAME    = SL-3 R/B
OBJECT_ID      = 1977-057B
CENTER_NAME    = EARTH
REF_FRAME      = TEME
TIME_SYSTEM    = UTC
MEAN_ELEMENT_THEORY = SGP/SGP4

EPOCH          = 2026-01-16T23:03:09.794592
MEAN_MOTION    = 15.43888860
ECCENTRICITY   = .00085666
INCLINATION    = 97.5698
RA_OF_ASC_NODE = 186.6897
ARG_OF_PERICENTER = 107.4100
MEAN_ANOMALY   = 252.8085

EPHEMERIS_TYPE = 0
CLASSIFICATION_TYPE = U
NORAD_CAT_ID   = 10114
ELEMENT_SET_NO = 999
REV_AT_EPOCH   = 66034
BSTAR          = .23497626E-3
MEAN_MOTION_DOT = .10592E-3
MEAN_MOTION_DDOT = 0

CCSDS_OMM_VERS = 2.0
CREATION_DATE  = 
ORIGINATOR     = 

OBJECT_NAME    = SEASAT 1
OBJECT_ID      = 1978-064A
CENTER_NAME    = EARTH
REF_FRAME      = TEME
TIME_SYSTEM    = UTC
MEAN_ELEMENT_THEORY = SGP/SGP4

EPOCH          = 2026-01-16T21:25:38.792640
MEAN_MOTION    = 14.46104738
ECCENTRICITY   = .0001179
INCLINATION    = 108.0158
RA_OF_ASC_NODE = 16.7949
ARG_OF_PERICENTER = 278.9359
MEAN_ANOMALY   = 81.1653

EPHEMERIS_TYPE = 0
CLASSIFICATION_TYPE = U
NORAD_CAT_ID   = 10967
ELEMENT_SET_NO = 999
REV_AT_EPOCH   = 49902
BSTAR          = .10901289E-3
MEAN_MOTION_DOT = .252E-5
MEAN_MOTION_DDOT = 0

CCSDS_OMM_VERS = 2.0
CREATION_DATE  = 
ORIGINATOR     = 

OBJECT_NAME    = SL-14 R/B
OBJECT_ID      = 1979-011B
CENTER_NAME    = EARTH
REF_FRAME      = TEME
TIME_SYSTEM    = UTC
MEAN_ELEMENT_THEORY = SGP/SGP4

EPOCH          = 2026-01-16T19:13:40.834848
MEAN_MOTION    = 14.91824254
ECCENTRICITY   = .00149692
INCLINATION    = 82.5259
RA_OF_ASC_NODE = 145.7927
ARG_OF_PERICENTER = 227.2652
MEAN_ANOMALY   = 132.7308

EPHEMERIS_TYPE = 0
CLASSIFICATION_TYPE = U
NORAD_CAT_ID   = 11267
ELEMENT_SET_NO = 999
REV_AT_EPOCH   = 52104
BSTAR          = .48148713E-4
MEAN_MOTION_DOT = .512E-5
MEAN_MOTION_DDOT = 0

CCSDS_OMM_VERS = 2.0
CREATION_DATE  = 
ORIGINATOR     = 

OBJECT_NAME    = SL-8 R/B
OBJECT_ID      = 1979-089B
CENTER_NAME    = EARTH
REF_FRAME      = TEME
TIME_SYSTEM    = UTC
MEAN_ELEMENT_THEORY = SGP/SGP4

EPOCH          = 2026-01-16T22:24:09.409536
MEAN_MOTION    = 14.42309191
ECCENTRICITY   = .00155709
INCLINATION    = 74.0675
RA_OF_ASC_NODE = 186.8409
ARG_OF_PERICENTER = 8.1661
MEAN_ANOMALY   = 351.9746

EPHEMERIS_TYPE = 0
CLASSIFICATION_TYPE = U
NORAD_CAT_ID   = 11574
ELEMENT_SET_NO = 999
REV_AT_EPOCH   = 42864
BSTAR          = .1146445E-3
MEAN_MOTION_DOT = .353E-5
MEAN_MOTION_DDOT = 0

CCSDS_OMM_VERS = 2.0
CREATION_DATE  = 
ORIGINATOR     = 

OBJECT_NAME    = SL-14 R/B
OBJECT_ID      = 1980-005B
CENTER_NAME    = EARTH
REF_FRAME      = TEME
TIME_SYSTEM    = UTC
MEAN_ELEMENT_THEORY = SGP/SGP4

EPOCH          = 2026-01-16T23:33:21.284640
MEAN_MOTION    = 14.90843176
ECCENTRICITY   = .00152199
INCLINATION    = 82.5150
RA_OF_ASC_NODE = 356.2707
ARG_OF_PERICENTER = 341.9870
MEAN_ANOMALY   = 18.0807

EPHEMERIS_TYPE = 0
CLASSIFICATION_TYPE = U
NORAD_CAT_ID   = 11672
ELEMENT_SET_NO = 999
REV_AT_EPOCH   = 46878
BSTAR          = .58376303E-4
MEAN_MOTION_DOT = .601E-5
MEAN_MOTION_DDOT = 0

CCSDS_OMM_VERS = 2.0
CREATION_DATE  = 
ORIGINATOR     = 

OBJECT_NAME    = SL-8 R/B
OBJECT_ID      = 1981-003B
CENTER_NAME    = EARTH
REF_FRAME      = TEME
TIME_SYSTEM    = UTC
MEAN_ELEMENT_THEORY = SGP/SGP4

EPOCH          = 2026-01-16T21:53:11.222880
MEAN_MOTION    = 15.08571055
ECCENTRICITY   = .02711089
INCLINATION    = 82.9388
RA_OF_ASC_NODE = 337.8268
ARG_OF_PERICENTER = 359.4929
MEAN_ANOMALY   = 0.5981

EPHEMERIS_TYPE = 0
CLASSIFICATION_TYPE = U
NORAD_CAT_ID   = 12139
ELEMENT_SET_NO = 999
REV_AT_EPOCH   = 30686
BSTAR          = .69960666E-3
MEAN_MOTION_DOT = .26415E-3
MEAN_MOTION_DDOT = 0

CCSDS_OMM_VERS = 2.0
CREATION_DATE  = 
ORIGINATOR     = 

OBJECT_NAME    = SL-3 R/B
OBJECT_ID      = 1981-046B
CENTER_NAME    = EARTH
REF_FRAME      = TEME
TIME_SYSTEM    = UTC
MEAN_ELEMENT_THEORY = SGP/SGP4

EPOCH          = 2026-01-16T23:24:59.314464
MEAN_MOTION    = 15.40449408
ECCENTRICITY   = .00187772
INCLINATION    = 81.2327
RA_OF_ASC_NODE = 351.7551
ARG_OF_PERICENTER = 193.7777
MEAN_ANOMALY   = 166.2955

EPHEMERIS_TYPE = 0
CLASSIFICATION_TYPE = U
NORAD_CAT_ID   = 12465
ELEMENT_SET_NO = 999
REV_AT_EPOCH   = 43046
BSTAR          = .2475543E-3
MEAN_MOTION_DOT = .10116E-3
MEAN_MOTION_DDOT = 0

CCSDS_OMM_VERS = 2.0
CREATION_DATE  = 
ORIGINATOR     = 

OBJECT_NAME    = SL-3 R/B
OBJECT_ID      = 1981-103B
CENTER_NAME    = EARTH
REF_FRAME      = TEME
TIME_SYSTEM    = UTC
MEAN_ELEMENT_THEORY = SGP/SGP4

EPOCH          = 2026-01-16T22:25:03.248832
MEAN_MOTION    = 15.20690512
ECCENTRICITY   = .00144519
INCLINATION    = 81.1593
RA_OF_ASC_NODE = 274.1253
ARG_OF_PERICENTER = 97.5911
MEAN_ANOMALY   = 262.6963

EPHEMERIS_TYPE = 0
CLASSIFICATION_TYPE = U
NORAD_CAT_ID   = 12904
ELEMENT_SET_NO = 999
REV_AT_EPOCH   = 96536
BSTAR          = .19828902E-3
MEAN_MOTION_DOT = .4393E-4
MEAN_MOTION_DDOT = 0

CCSDS_OMM_VERS = 2.0
CREATION_DATE  = 
ORIGINATOR     = 

OBJECT_NAME    = SL-3 R/B
OBJECT_ID      = 1982-013B
CENTER_NAME    = EARTH
REF_FRAME      = TEME
TIME_SYSTEM    = UTC
MEAN_ELEMENT_THEORY = SGP/SGP4

EPOCH          = 2026-01-16T23:09:27.165600
MEAN_MOTION    = 15.21416782
ECCENTRICITY   = .00227799
INCLINATION    = 81.1723
RA_OF_ASC_NODE = 221.3673
ARG_OF_PERICENTER = 356.6278
MEAN_ANOMALY   = 3.4796

EPHEMERIS_TYPE = 0
CLASSIFICATION_TYPE = U
NORAD_CAT_ID   = 13068
ELEMENT_SET_NO = 999
REV_AT_EPOCH   = 39648
BSTAR          = .16107533E-3
MEAN_MOTION_DOT = .3665E-4
MEAN_MOTION_DDOT = 0

CCSDS_OMM_VERS = 2.0
CREATION_DATE  = 
ORIGINATOR     = 

OBJECT_NAME    = SL-3 R/B
OBJECT_ID      = 1982-039B
CENTER_NAME    = EARTH
REF_FRAME      = TEME
TIME_SYSTEM    = UTC
MEAN_ELEMENT_THEORY = SGP/SGP4

EPOCH          = 2026-01-16T23:12:54.759744
MEAN_MOTION    = 15.09755287
ECCENTRICITY   = .0029912
INCLINATION    = 81.1672
RA_OF_ASC_NODE = 275.5586
ARG_OF_PERICENTER = 133.7616
MEAN_ANOMALY   = 226.6092

EPHEMERIS_TYPE = 0
CLASSIFICATION_TYPE = U
NORAD_CAT_ID   = 13154
ELEMENT_SET_NO = 999
REV_AT_EPOCH   = 37383
BSTAR          = .11911837E-3
MEAN_MOTION_DOT = .1966E-4
MEAN_MOTION_DDOT = 0

